{"fetched_at":"2026-07-07T07:58:39.480Z","source":"https://celestrak.org/NORAD/elements/gp.php?NAME=KINEIS&FORMAT=JSON","constellation":"kineis","records":[{"OBJECT_NAME":"KINEIS-1B","OBJECT_ID":"2024-114A","EPOCH":"2026-07-06T20:27:59.518944","CLASSIFICATION_TYPE":"U","MEAN_MOTION":14.80658063,"ECCENTRICITY":0.0003497,"INCLINATION":97.9826,"RA_OF_ASC_NODE":211.9443,"ARG_OF_PERICENTER":56.212,"MEAN_ANOMALY":303.9425,"EPHEMERIS_TYPE":0,"NORAD_CAT_ID":60079,"ELEMENT_SET_NO":999,"REV_AT_EPOCH":11031,"BSTAR":0.00010909,"MEAN_MOTION_DOT":0.00000785,"MEAN_MOTION_DDOT":0},{"OBJECT_NAME":"KINEIS-1C","OBJECT_ID":"2024-114C","EPOCH":"2026-07-06T21:16:26.203296","CLASSIFICATION_TYPE":"U","MEAN_MOTION":14.80660225,"ECCENTRICITY":0.0002491,"INCLINATION":97.9846,"RA_OF_ASC_NODE":211.8312,"ARG_OF_PERICENTER":105.0292,"MEAN_ANOMALY":255.1196,"EPHEMERIS_TYPE":0,"NORAD_CAT_ID":60081,"ELEMENT_SET_NO":999,"REV_AT_EPOCH":11029,"BSTAR":0.00010303,"MEAN_MOTION_DOT":0.00000739,"MEAN_MOTION_DDOT":0},{"OBJECT_NAME":"KINEIS-1D","OBJECT_ID":"2024-114D","EPOCH":"2026-07-06T20:01:53.625216","CLASSIFICATION_TYPE":"U","MEAN_MOTION":14.76355121,"ECCENTRICITY":0.0002806,"INCLINATION":97.9882,"RA_OF_ASC_NODE":207.7552,"ARG_OF_PERICENTER":111.0056,"MEAN_ANOMALY":249.1454,"EPHEMERIS_TYPE":0,"NORAD_CAT_ID":60082,"ELEMENT_SET_NO":999,"REV_AT_EPOCH":11002,"BSTAR":0.000089588,"MEAN_MOTION_DOT":0.00000571,"MEAN_MOTION_DDOT":0},{"OBJECT_NAME":"KINEIS-1E","OBJECT_ID":"2024-114E","EPOCH":"2026-07-06T21:42:16.890624","CLASSIFICATION_TYPE":"U","MEAN_MOTION":14.80683811,"ECCENTRICITY":0.0003801,"INCLINATION":97.8943,"RA_OF_ASC_NODE":211.0103,"ARG_OF_PERICENTER":126.6201,"MEAN_ANOMALY":233.5361,"EPHEMERIS_TYPE":0,"NORAD_CAT_ID":60083,"ELEMENT_SET_NO":999,"REV_AT_EPOCH":11030,"BSTAR":0.00014607,"MEAN_MOTION_DOT":0.00001071,"MEAN_MOTION_DDOT":0},{"OBJECT_NAME":"KINEIS-1A","OBJECT_ID":"2024-114F","EPOCH":"2026-07-06T20:53:02.199840","CLASSIFICATION_TYPE":"U","MEAN_MOTION":14.80673163,"ECCENTRICITY":0.0005659,"INCLINATION":97.8916,"RA_OF_ASC_NODE":211.0733,"ARG_OF_PERICENTER":82.1947,"MEAN_ANOMALY":277.9907,"EPHEMERIS_TYPE":0,"NORAD_CAT_ID":60084,"ELEMENT_SET_NO":999,"REV_AT_EPOCH":11030,"BSTAR":0.00011373,"MEAN_MOTION_DOT":0.00000822,"MEAN_MOTION_DDOT":0},{"OBJECT_NAME":"KINEIS-3C","OBJECT_ID":"2024-172A","EPOCH":"2026-07-06T17:07:21.569376","CLASSIFICATION_TYPE":"U","MEAN_MOTION":14.7235256,"ECCENTRICITY":0.0002816,"INCLINATION":98.043,"RA_OF_ASC_NODE":277.4059,"ARG_OF_PERICENTER":95.7461,"MEAN_ANOMALY":264.4068,"EPHEMERIS_TYPE":0,"NORAD_CAT_ID":61220,"ELEMENT_SET_NO":999,"REV_AT_EPOCH":9594,"BSTAR":0.00028207,"MEAN_MOTION_DOT":0.00001735,"MEAN_MOTION_DDOT":0},{"OBJECT_NAME":"KINEIS-3D","OBJECT_ID":"2024-172B","EPOCH":"2026-07-06T16:57:39.500352","CLASSIFICATION_TYPE":"U","MEAN_MOTION":14.72354433,"ECCENTRICITY":0.0002632,"INCLINATION":98.0428,"RA_OF_ASC_NODE":277.4094,"ARG_OF_PERICENTER":95.3499,"MEAN_ANOMALY":264.8009,"EPHEMERIS_TYPE":0,"NORAD_CAT_ID":61221,"ELEMENT_SET_NO":999,"REV_AT_EPOCH":9622,"BSTAR":0.00028154,"MEAN_MOTION_DOT":0.00001732,"MEAN_MOTION_DDOT":0},{"OBJECT_NAME":"KINEIS-3E","OBJECT_ID":"2024-172C","EPOCH":"2026-07-06T05:08:05.443296","CLASSIFICATION_TYPE":"U","MEAN_MOTION":14.72320412,"ECCENTRICITY":0.00019056,"INCLINATION":98.0424,"RA_OF_ASC_NODE":276.9037,"ARG_OF_PERICENTER":95.6795,"MEAN_ANOMALY":264.4629,"EPHEMERIS_TYPE":0,"NORAD_CAT_ID":61222,"ELEMENT_SET_NO":999,"REV_AT_EPOCH":9615,"BSTAR":0.00035270847,"MEAN_MOTION_DOT":0.00002181,"MEAN_MOTION_DDOT":0},{"OBJECT_NAME":"KINEIS-3A","OBJECT_ID":"2024-172D","EPOCH":"2026-07-06T04:44:10.750560","CLASSIFICATION_TYPE":"U","MEAN_MOTION":14.72290048,"ECCENTRICITY":0.00027522,"INCLINATION":98.0419,"RA_OF_ASC_NODE":276.9858,"ARG_OF_PERICENTER":60.5422,"MEAN_ANOMALY":299.6059,"EPHEMERIS_TYPE":0,"NORAD_CAT_ID":61223,"ELEMENT_SET_NO":999,"REV_AT_EPOCH":9557,"BSTAR":0.00034818426,"MEAN_MOTION_DOT":0.00002151,"MEAN_MOTION_DDOT":0},{"OBJECT_NAME":"KINEIS-3B","OBJECT_ID":"2024-172E","EPOCH":"2026-07-06T17:21:58.329792","CLASSIFICATION_TYPE":"U","MEAN_MOTION":14.72277526,"ECCENTRICITY":0.0002242,"INCLINATION":98.0413,"RA_OF_ASC_NODE":277.5296,"ARG_OF_PERICENTER":47.6633,"MEAN_ANOMALY":312.4764,"EPHEMERIS_TYPE":0,"NORAD_CAT_ID":61224,"ELEMENT_SET_NO":999,"REV_AT_EPOCH":9622,"BSTAR":0.00026184,"MEAN_MOTION_DOT":0.00001604,"MEAN_MOTION_DDOT":0},{"OBJECT_NAME":"KINEIS-5C","OBJECT_ID":"2024-219A","EPOCH":"2026-07-06T20:05:02.442048","CLASSIFICATION_TYPE":"U","MEAN_MOTION":14.72307141,"ECCENTRICITY":0.0003456,"INCLINATION":97.9059,"RA_OF_ASC_NODE":346.145,"ARG_OF_PERICENTER":200.0863,"MEAN_ANOMALY":160.0209,"EPHEMERIS_TYPE":0,"NORAD_CAT_ID":62081,"ELEMENT_SET_NO":999,"REV_AT_EPOCH":8664,"BSTAR":0.00010393,"MEAN_MOTION_DOT":0.00000609,"MEAN_MOTION_DDOT":0},{"OBJECT_NAME":"KINEIS-5D","OBJECT_ID":"2024-219B","EPOCH":"2026-07-06T19:06:49.081824","CLASSIFICATION_TYPE":"U","MEAN_MOTION":14.72482935,"ECCENTRICITY":0.0004577,"INCLINATION":97.9171,"RA_OF_ASC_NODE":346.1597,"ARG_OF_PERICENTER":193.6132,"MEAN_ANOMALY":166.4953,"EPHEMERIS_TYPE":0,"NORAD_CAT_ID":62082,"ELEMENT_SET_NO":999,"REV_AT_EPOCH":8664,"BSTAR":0.00014834,"MEAN_MOTION_DOT":0.00000893,"MEAN_MOTION_DDOT":0},{"OBJECT_NAME":"KINEIS-5E","OBJECT_ID":"2024-219C","EPOCH":"2026-07-06T19:30:54.006048","CLASSIFICATION_TYPE":"U","MEAN_MOTION":14.72292121,"ECCENTRICITY":0.0006077,"INCLINATION":97.9015,"RA_OF_ASC_NODE":346.2209,"ARG_OF_PERICENTER":190.5127,"MEAN_ANOMALY":169.5954,"EPHEMERIS_TYPE":0,"NORAD_CAT_ID":62083,"ELEMENT_SET_NO":999,"REV_AT_EPOCH":8665,"BSTAR":0.000098442,"MEAN_MOTION_DOT":0.00000574,"MEAN_MOTION_DDOT":0},{"OBJECT_NAME":"KINEIS-5A","OBJECT_ID":"2024-219D","EPOCH":"2026-07-06T10:49:46.443072","CLASSIFICATION_TYPE":"U","MEAN_MOTION":14.72289083,"ECCENTRICITY":0.00031406,"INCLINATION":97.8957,"RA_OF_ASC_NODE":346.1558,"ARG_OF_PERICENTER":233.6875,"MEAN_ANOMALY":126.4043,"EPHEMERIS_TYPE":0,"NORAD_CAT_ID":62084,"ELEMENT_SET_NO":999,"REV_AT_EPOCH":8660,"BSTAR":0.00019838985,"MEAN_MOTION_DOT":0.00001205,"MEAN_MOTION_DDOT":0},{"OBJECT_NAME":"KINEIS-5B","OBJECT_ID":"2024-219E","EPOCH":"2026-07-06T19:28:18.850656","CLASSIFICATION_TYPE":"U","MEAN_MOTION":14.78373225,"ECCENTRICITY":0.0001888,"INCLINATION":98.0082,"RA_OF_ASC_NODE":351.5335,"ARG_OF_PERICENTER":162.4255,"MEAN_ANOMALY":197.7021,"EPHEMERIS_TYPE":0,"NORAD_CAT_ID":62085,"ELEMENT_SET_NO":999,"REV_AT_EPOCH":8690,"BSTAR":0.00014995,"MEAN_MOTION_DOT":0.00001039,"MEAN_MOTION_DDOT":0},{"OBJECT_NAME":"KINEIS-2C","OBJECT_ID":"2025-028B","EPOCH":"2026-07-06T16:12:55.416096","CLASSIFICATION_TYPE":"U","MEAN_MOTION":14.73412271,"ECCENTRICITY":0.0003534,"INCLINATION":98.1234,"RA_OF_ASC_NODE":242.0901,"ARG_OF_PERICENTER":183.2272,"MEAN_ANOMALY":176.8914,"EPHEMERIS_TYPE":0,"NORAD_CAT_ID":62929,"ELEMENT_SET_NO":999,"REV_AT_EPOCH":7548,"BSTAR":0.00025211,"MEAN_MOTION_DOT":0.00001584,"MEAN_MOTION_DDOT":0}]}
