KINEIS-1B               
1 60079U 24114A   26187.85277221  .00000785  00000+0  10909-3 0  9993
2 60079  97.9826 211.9443 0003497  56.2120 303.9425 14.80658063110311
KINEIS-1C               
1 60081U 24114C   26187.88641439  .00000739  00000+0  10303-3 0  9992
2 60081  97.9846 211.8312 0002491 105.0292 255.1196 14.80660225110299
KINEIS-1D               
1 60082U 24114D   26187.83464844  .00000571  00000+0  89588-4 0  9997
2 60082  97.9882 207.7552 0002806 111.0056 249.1454 14.76355121110027
KINEIS-1E               
1 60083U 24114E   26187.90436216  .00001071  00000+0  14607-3 0  9993
2 60083  97.8943 211.0103 0003801 126.6201 233.5361 14.80683811110305
KINEIS-1A               
1 60084U 24114F   26187.87016435  .00000822  00000+0  11373-3 0  9997
2 60084  97.8916 211.0733 0005659  82.1947 277.9907 14.80673163110308
KINEIS-3C               
1 61220U 24172A   26187.71344409  .00001735  00000+0  28207-3 0  9990
2 61220  98.0430 277.4059 0002816  95.7461 264.4068 14.72352560 95942
KINEIS-3D               
1 61221U 24172B   26187.70670718  .00001732  00000+0  28154-3 0  9993
2 61221  98.0428 277.4094 0002632  95.3499 264.8009 14.72354433 96224
KINEIS-3E               
1 61222U 24172C   26187.21395189  .00002181  00000+0  35271-3 0  9993
2 61222  98.0424 276.9037 0001905  95.6795 264.4629 14.72320412 96152
KINEIS-3A               
1 61223U 24172D   26187.19734665  .00002151  00000+0  34818-3 0  9990
2 61223  98.0419 276.9858 0002752  60.5422 299.6059 14.72290048 95570
KINEIS-3B               
1 61224U 24172E   26187.72359178  .00001604  00000+0  26184-3 0  9991
2 61224  98.0413 277.5296 0002242  47.6633 312.4764 14.72277526 96228
KINEIS-5C               
1 62081U 24219A   26187.83683382  .00000609  00000+0  10393-3 0  9993
2 62081  97.9059 346.1450 0003456 200.0863 160.0209 14.72307141 86640
KINEIS-5D               
1 62082U 24219B   26187.79640141  .00000893  00000+0  14834-3 0  9994
2 62082  97.9171 346.1597 0004577 193.6132 166.4953 14.72482935 86640
KINEIS-5E               
1 62083U 24219C   26187.81312507  .00000574  00000+0  98442-4 0  9994
2 62083  97.9015 346.2209 0006077 190.5127 169.5954 14.72292121 86658
KINEIS-5A               
1 62084U 24219D   26187.45123198  .00001205  00000+0  19839-3 0  9995
2 62084  97.8957 346.1558 0003140 233.6875 126.4043 14.72289083 86605
KINEIS-5B               
1 62085U 24219E   26187.81132929  .00001039  00000+0  14995-3 0  9991
2 62085  98.0082 351.5335 0001888 162.4255 197.7021 14.78373225 86907
KINEIS-2C               
1 62929U 25028B   26187.67564139  .00001584  00000+0  25211-3 0  9991
2 62929  98.1234 242.0901 0003534 183.2272 176.8914 14.73412271 75487
